<?xml version="1.0" ?>
<gpx xmlns="http://www.topografix.com/GPX/1/0">
  <trk>
    <trkseg>
      <trkpt lat="49.2775780196" lon="-123.0141504706">
        <time>2022-06-08T18:20:36Z</time>
      </trkpt>
      <trkpt lat="49.2776261507" lon="-123.0141556027">
        <time>2022-06-08T18:20:40Z</time>
      </trkpt>
      <trkpt lat="49.2776834028" lon="-123.0141434722">
        <time>2022-06-08T18:20:44Z</time>
      </trkpt>
      <trkpt lat="49.2777486986" lon="-123.0141520822">
        <time>2022-06-08T18:20:48Z</time>
      </trkpt>
      <trkpt lat="49.2778157123" lon="-123.0141509452">
        <time>2022-06-08T18:20:52Z</time>
      </trkpt>
      <trkpt lat="49.2778653973" lon="-123.0141331781">
        <time>2022-06-08T18:20:56Z</time>
      </trkpt>
      <trkpt lat="49.2779412500" lon="-123.0141407639">
        <time>2022-06-08T18:21:00Z</time>
      </trkpt>
      <trkpt lat="49.2780001507" lon="-123.0141502740">
        <time>2022-06-08T18:21:04Z</time>
      </trkpt>
      <trkpt lat="49.2780667671" lon="-123.0141312603">
        <time>2022-06-08T18:21:08Z</time>
      </trkpt>
      <trkpt lat="49.2781276575" lon="-123.0141192466">
        <time>2022-06-08T18:21:12Z</time>
      </trkpt>
      <trkpt lat="49.2781931528" lon="-123.0141374444">
        <time>2022-06-08T18:21:16Z</time>
      </trkpt>
      <trkpt lat="49.2782581370" lon="-123.0141208219">
        <time>2022-06-08T18:21:20Z</time>
      </trkpt>
      <trkpt lat="49.2782914658" lon="-123.0140774247">
        <time>2022-06-08T18:21:24Z</time>
      </trkpt>
      <trkpt lat="49.2783023056" lon="-123.0139760417">
        <time>2022-06-08T18:21:28Z</time>
      </trkpt>
      <trkpt lat="49.2783073425" lon="-123.0138989041">
        <time>2022-06-08T18:21:32Z</time>
      </trkpt>
      <trkpt lat="49.2783183611" lon="-123.0137992500">
        <time>2022-06-08T18:21:36Z</time>
      </trkpt>
      <trkpt lat="49.2783116301" lon="-123.0137127123">
        <time>2022-06-08T18:21:40Z</time>
      </trkpt>
      <trkpt lat="49.2783193472" lon="-123.0136189444">
        <time>2022-06-08T18:21:44Z</time>
      </trkpt>
      <trkpt lat="49.2783095417" lon="-123.0135441111">
        <time>2022-06-08T18:21:48Z</time>
      </trkpt>
      <trkpt lat="49.2783289726" lon="-123.0134480822">
        <time>2022-06-08T18:21:52Z</time>
      </trkpt>
      <trkpt lat="49.2783242192" lon="-123.0133769315">
        <time>2022-06-08T18:21:56Z</time>
      </trkpt>
      <trkpt lat="49.2783321528" lon="-123.0132737222">
        <time>2022-06-08T18:22:00Z</time>
      </trkpt>
      <trkpt lat="49.2783304521" lon="-123.0131653288">
        <time>2022-06-08T18:22:04Z</time>
      </trkpt>
      <trkpt lat="49.2783234110" lon="-123.0130752329">
        <time>2022-06-08T18:22:08Z</time>
      </trkpt>
      <trkpt lat="49.2783224167" lon="-123.0130017500">
        <time>2022-06-08T18:22:12Z</time>
      </trkpt>
      <trkpt lat="49.2783270000" lon="-123.0128901096">
        <time>2022-06-08T18:22:16Z</time>
      </trkpt>
      <trkpt lat="49.2783281918" lon="-123.0127757123">
        <time>2022-06-08T18:22:20Z</time>
      </trkpt>
      <trkpt lat="49.2783168904" lon="-123.0126626575">
        <time>2022-06-08T18:22:24Z</time>
      </trkpt>
      <trkpt lat="49.2783142500" lon="-123.0125362639">
        <time>2022-06-08T18:22:28Z</time>
      </trkpt>
      <trkpt lat="49.2783078493" lon="-123.0124341233">
        <time>2022-06-08T18:22:32Z</time>
      </trkpt>
      <trkpt lat="49.2783057917" lon="-123.0123272361">
        <time>2022-06-08T18:22:36Z</time>
      </trkpt>
      <trkpt lat="49.2783090685" lon="-123.0122037123">
        <time>2022-06-08T18:22:40Z</time>
      </trkpt>
      <trkpt lat="49.2782976479" lon="-123.0121004789">
        <time>2022-06-08T18:22:44Z</time>
      </trkpt>
      <trkpt lat="49.2783015616" lon="-123.0119974110">
        <time>2022-06-08T18:22:48Z</time>
      </trkpt>
      <trkpt lat="49.2783014167" lon="-123.0118924861">
        <time>2022-06-08T18:22:52Z</time>
      </trkpt>
      <trkpt lat="49.2783033056" lon="-123.0118091111">
        <time>2022-06-08T18:22:56Z</time>
      </trkpt>
      <trkpt lat="49.2783030000" lon="-123.0116946164">
        <time>2022-06-08T18:23:00Z</time>
      </trkpt>
      <trkpt lat="49.2782833836" lon="-123.0116242740">
        <time>2022-06-08T18:23:04Z</time>
      </trkpt>
      <trkpt lat="49.2782169589" lon="-123.0116100548">
        <time>2022-06-08T18:23:08Z</time>
      </trkpt>
      <trkpt lat="49.2781552222" lon="-123.0116105278">
        <time>2022-06-08T18:23:12Z</time>
      </trkpt>
      <trkpt lat="49.2781103973" lon="-123.0116156575">
        <time>2022-06-08T18:23:16Z</time>
      </trkpt>
      <trkpt lat="49.2780540000" lon="-123.0116184932">
        <time>2022-06-08T18:23:20Z</time>
      </trkpt>
      <trkpt lat="49.2779884247" lon="-123.0116041370">
        <time>2022-06-08T18:23:24Z</time>
      </trkpt>
      <trkpt lat="49.2779234143" lon="-123.0116080143">
        <time>2022-06-08T18:23:28Z</time>
      </trkpt>
      <trkpt lat="49.2779221918" lon="-123.0115239178">
        <time>2022-06-08T18:23:32Z</time>
      </trkpt>
      <trkpt lat="49.2779160274" lon="-123.0114654521">
        <time>2022-06-08T18:23:36Z</time>
      </trkpt>
      <trkpt lat="49.2778643056" lon="-123.0114077778">
        <time>2022-06-08T18:23:40Z</time>
      </trkpt>
      <trkpt lat="49.2777986575" lon="-123.0114110959">
        <time>2022-06-08T18:23:44Z</time>
      </trkpt>
      <trkpt lat="49.2777319861" lon="-123.0114069444">
        <time>2022-06-08T18:23:48Z</time>
      </trkpt>
      <trkpt lat="49.2776811096" lon="-123.0113811644">
        <time>2022-06-08T18:23:52Z</time>
      </trkpt>
      <trkpt lat="49.2776230417" lon="-123.0113657639">
        <time>2022-06-08T18:23:56Z</time>
      </trkpt>
      <trkpt lat="49.2775534658" lon="-123.0113846986">
        <time>2022-06-08T18:24:00Z</time>
      </trkpt>
      <trkpt lat="49.2775349167" lon="-123.0113287778">
        <time>2022-06-08T18:24:04Z</time>
      </trkpt>
      <trkpt lat="49.2775370959" lon="-123.0112479315">
        <time>2022-06-08T18:24:08Z</time>
      </trkpt>
      <trkpt lat="49.2775483611" lon="-123.0111761806">
        <time>2022-06-08T18:24:12Z</time>
      </trkpt>
      <trkpt lat="49.2775458750" lon="-123.0110663750">
        <time>2022-06-08T18:24:16Z</time>
      </trkpt>
      <trkpt lat="49.2775341806" lon="-123.0109914861">
        <time>2022-06-08T18:24:20Z</time>
      </trkpt>
      <trkpt lat="49.2775372361" lon="-123.0109187222">
        <time>2022-06-08T18:24:24Z</time>
      </trkpt>
      <trkpt lat="49.2775287671" lon="-123.0108385616">
        <time>2022-06-08T18:24:28Z</time>
      </trkpt>
      <trkpt lat="49.2775143699" lon="-123.0107530685">
        <time>2022-06-08T18:24:32Z</time>
      </trkpt>
      <trkpt lat="49.2774548082" lon="-123.0107041644">
        <time>2022-06-08T18:24:36Z</time>
      </trkpt>
      <trkpt lat="49.2774055972" lon="-123.0106848056">
        <time>2022-06-08T18:24:40Z</time>
      </trkpt>
      <trkpt lat="49.2774058889" lon="-123.0105988889">
        <time>2022-06-08T18:24:44Z</time>
      </trkpt>
      <trkpt lat="49.2774047397" lon="-123.0105163288">
        <time>2022-06-08T18:24:48Z</time>
      </trkpt>
      <trkpt lat="49.2773981644" lon="-123.0104447534">
        <time>2022-06-08T18:24:52Z</time>
      </trkpt>
      <trkpt lat="49.2773960423" lon="-123.0103610563">
        <time>2022-06-08T18:24:56Z</time>
      </trkpt>
      <trkpt lat="49.2774041644" lon="-123.0102740411">
        <time>2022-06-08T18:25:00Z</time>
      </trkpt>
      <trkpt lat="49.2773878750" lon="-123.0101758889">
        <time>2022-06-08T18:25:04Z</time>
      </trkpt>
      <trkpt lat="49.2773801389" lon="-123.0100640972">
        <time>2022-06-08T18:25:08Z</time>
      </trkpt>
      <trkpt lat="49.2773744247" lon="-123.0099456027">
        <time>2022-06-08T18:25:12Z</time>
      </trkpt>
      <trkpt lat="49.2773716806" lon="-123.0098355556">
        <time>2022-06-08T18:25:16Z</time>
      </trkpt>
      <trkpt lat="49.2773750685" lon="-123.0097353425">
        <time>2022-06-08T18:25:20Z</time>
      </trkpt>
      <trkpt lat="49.2773651944" lon="-123.0096341111">
        <time>2022-06-08T18:25:24Z</time>
      </trkpt>
      <trkpt lat="49.2773630278" lon="-123.0095317222">
        <time>2022-06-08T18:25:28Z</time>
      </trkpt>
      <trkpt lat="49.2773595616" lon="-123.0094127945">
        <time>2022-06-08T18:25:32Z</time>
      </trkpt>
      <trkpt lat="49.2773518082" lon="-123.0093195753">
        <time>2022-06-08T18:25:36Z</time>
      </trkpt>
      <trkpt lat="49.2773627639" lon="-123.0091990417">
        <time>2022-06-08T18:25:40Z</time>
      </trkpt>
      <trkpt lat="49.2773460845" lon="-123.0090801972">
        <time>2022-06-08T18:25:44Z</time>
      </trkpt>
      <trkpt lat="49.2773424167" lon="-123.0089759306">
        <time>2022-06-08T18:25:48Z</time>
      </trkpt>
      <trkpt lat="49.2773579167" lon="-123.0088761667">
        <time>2022-06-08T18:25:52Z</time>
      </trkpt>
      <trkpt lat="49.2774026301" lon="-123.0088423973">
        <time>2022-06-08T18:25:56Z</time>
      </trkpt>
      <trkpt lat="49.2774616301" lon="-123.0088347945">
        <time>2022-06-08T18:26:00Z</time>
      </trkpt>
      <trkpt lat="49.2774718904" lon="-123.0087619863">
        <time>2022-06-08T18:26:04Z</time>
      </trkpt>
      <trkpt lat="49.2774523056" lon="-123.0086886667">
        <time>2022-06-08T18:26:08Z</time>
      </trkpt>
      <trkpt lat="49.2774029726" lon="-123.0086723699">
        <time>2022-06-08T18:26:12Z</time>
      </trkpt>
      <trkpt lat="49.2773624795" lon="-123.0086392192">
        <time>2022-06-08T18:26:16Z</time>
      </trkpt>
      <trkpt lat="49.2773499452" lon="-123.0085431096">
        <time>2022-06-08T18:26:20Z</time>
      </trkpt>
      <trkpt lat="49.2773463611" lon="-123.0084492639">
        <time>2022-06-08T18:26:24Z</time>
      </trkpt>
      <trkpt lat="49.2773564247" lon="-123.0083551096">
        <time>2022-06-08T18:26:28Z</time>
      </trkpt>
      <trkpt lat="49.2773550274" lon="-123.0082515890">
        <time>2022-06-08T18:26:32Z</time>
      </trkpt>
      <trkpt lat="49.2773459444" lon="-123.0081600833">
        <time>2022-06-08T18:26:36Z</time>
      </trkpt>
      <trkpt lat="49.2773429315" lon="-123.0080492055">
        <time>2022-06-08T18:26:40Z</time>
      </trkpt>
      <trkpt lat="49.2773315616" lon="-123.0079765205">
        <time>2022-06-08T18:26:44Z</time>
      </trkpt>
      <trkpt lat="49.2773376438" lon="-123.0078637808">
        <time>2022-06-08T18:26:48Z</time>
      </trkpt>
      <trkpt lat="49.2773391944" lon="-123.0077760278">
        <time>2022-06-08T18:26:52Z</time>
      </trkpt>
      <trkpt lat="49.2773621096" lon="-123.0077024384">
        <time>2022-06-08T18:26:56Z</time>
      </trkpt>
      <trkpt lat="49.2773654583" lon="-123.0076632361">
        <time>2022-06-08T18:27:00Z</time>
      </trkpt>
      <trkpt lat="49.2773787432" lon="-123.0075853784">
        <time>2022-06-08T18:27:04Z</time>
      </trkpt>
      <trkpt lat="49.2773856806" lon="-123.0074915972">
        <time>2022-06-08T18:27:08Z</time>
      </trkpt>
      <trkpt lat="49.2773913425" lon="-123.0074201370">
        <time>2022-06-08T18:27:12Z</time>
      </trkpt>
      <trkpt lat="49.2773889589" lon="-123.0073005616">
        <time>2022-06-08T18:27:16Z</time>
      </trkpt>
      <trkpt lat="49.2773968194" lon="-123.0071874306">
        <time>2022-06-08T18:27:20Z</time>
      </trkpt>
      <trkpt lat="49.2773996027" lon="-123.0070851644">
        <time>2022-06-08T18:27:24Z</time>
      </trkpt>
      <trkpt lat="49.2773861408" lon="-123.0069804507">
        <time>2022-06-08T18:27:28Z</time>
      </trkpt>
      <trkpt lat="49.2773842703" lon="-123.0068870135">
        <time>2022-06-08T18:27:32Z</time>
      </trkpt>
    </trkseg>
  </trk>
</gpx>
